[{"OBJECT_NAME":"SEEDS II (CO-66)","OBJECT_ID":"2008-021J","EPOCH":"2026-03-09T22:06:22.421376","MEAN_MOTION":15.29097236,"ECCENTRICITY":0.00014475,"INCLINATION":97.7519,"RA_OF_ASC_NODE":62.3611,"ARG_OF_PERICENTER":359.2618,"MEAN_ANOMALY":0.8619,"EPHEMERIS_TYPE":0,"CLASSIFICATION_TYPE":"U","NORAD_CAT_ID":32791,"ELEMENT_SET_NO":999,"REV_AT_EPOCH":97210,"BSTAR":0.00084213052,"MEAN_MOTION_DOT":0.00023758,"MEAN_MOTION_DDOT":0},{"OBJECT_NAME":"STARLINK-35559","OBJECT_ID":"2025-236K","EPOCH":"2026-03-09T12:52:33.363264","MEAN_MOTION":15.30196044,"ECCENTRICITY":0.00013487,"INCLINATION":53.1589,"RA_OF_ASC_NODE":104.4063,"ARG_OF_PERICENTER":88.8812,"MEAN_ANOMALY":271.2343,"EPHEMERIS_TYPE":0,"CLASSIFICATION_TYPE":"U","NORAD_CAT_ID":66095,"ELEMENT_SET_NO":999,"REV_AT_EPOCH":2292,"BSTAR":0.00089097535,"MEAN_MOTION_DOT":0.00026119,"MEAN_MOTION_DDOT":0}]
